[{"OBJECT_NAME":"STARLINK-35108","OBJECT_ID":"2025-216E","EPOCH":"2026-03-09T21:28:32.742624","MEAN_MOTION":15.30211752,"ECCENTRICITY":0.00014695,"INCLINATION":53.158,"RA_OF_ASC_NODE":332.041,"ARG_OF_PERICENTER":114.6975,"MEAN_ANOMALY":245.4178,"EPHEMERIS_TYPE":0,"CLASSIFICATION_TYPE":"U","NORAD_CAT_ID":65738,"ELEMENT_SET_NO":999,"REV_AT_EPOCH":2662,"BSTAR":0.00083434508,"MEAN_MOTION_DOT":0.00024442,"MEAN_MOTION_DDOT":0},{"OBJECT_NAME":"SPACEMOBILE-005 DEB","OBJECT_ID":"2024-163K","EPOCH":"2026-03-09T07:33:15.902496","MEAN_MOTION":15.31481997,"ECCENTRICITY":0.00072885,"INCLINATION":52.9762,"RA_OF_ASC_NODE":31.7924,"ARG_OF_PERICENTER":175.8731,"MEAN_ANOMALY":184.2329,"EPHEMERIS_TYPE":0,"CLASSIFICATION_TYPE":"U","NORAD_CAT_ID":62373,"ELEMENT_SET_NO":999,"REV_AT_EPOCH":8280,"BSTAR":0.00063853778,"MEAN_MOTION_DOT":0.00019381,"MEAN_MOTION_DDOT":0}]
